{"type": "FeatureCollection", "features": [ {"type": "Feature", "properties": {"norad_id": 66496, "name": "STARLINK-35909", "group": "last-30-days", "lat": 25.5517367212911, "lon": -24.93196908059549, "alt_km": 341.32434076048594, "timestamp": "2025-12-02T10:50:46.052536+00:00", "meta": {"OBJECT_NAME": "STARLINK-35909", "OBJECT_ID": "2025-263M", "EPOCH": "2025-12-02T04:00:03.998880", "MEAN_MOTION": 15.75070286, "ECCENTRICITY": 0.0001774, "INCLINATION": 42.9988, "RA_OF_ASC_NODE": 187.668, "ARG_OF_PERICENTER": 274.927, "MEAN_ANOMALY": 46.6032, "EPHEMERIS_TYPE": 0, "CLASSIFICATION_TYPE": "U", "NORAD_CAT_ID": 66496, "ELEMENT_SET_NO": 999, "REV_AT_EPOCH": 393, "BSTAR": -0.00036687, "MEAN_MOTION_DOT": -0.00056534, "MEAN_MOTION_DDOT": 0}, "tle": {"line1": "1 66496U 25263M   25336.16671295 -.00056534  00000+0 -36687-3 0  9992", "line2": "2 66496  42.9988 187.6680 0001774 274.9270  46.6032 15.75070286  3936"}}, "geometry": {"type": "Point", "coordinates": [-24.93196908059549, 25.5517367212911]}}, {"type": "Feature", "properties": {"norad_id": 66497, "name": "STARLINK-35899", "group": "last-30-days", "lat": 24.422260650980768, "lon": -23.233504008795805, "alt_km": 341.43135672811877, "timestamp": "2025-12-02T10:50:46.052546+00:00", "meta": {"OBJECT_NAME": "STARLINK-35899", "OBJECT_ID": "2025-263N", "EPOCH": "2025-12-02T04:00:03.998880", "MEAN_MOTION": 15.75033016, "ECCENTRICITY": 0.0001773, "INCLINATION": 42.9988, "RA_OF_ASC_NODE": 187.6623, "ARG_OF_PERICENTER": 270.4826, "MEAN_ANOMALY": 52.9844, "EPHEMERIS_TYPE": 0, "CLASSIFICATION_TYPE": "U", "NORAD_CAT_ID": 66497, "ELEMENT_SET_NO": 999, "REV_AT_EPOCH": 393, "BSTAR": -3.9577e-05, "MEAN_MOTION_DOT": -6.551e-05, "MEAN_MOTION_DDOT": 0}, "tle": {"line1": "1 66497U 25263N   25336.16671295 -.00006551  00000+0 -39577-4 0  9999", "line2": "2 66497  42.9988 187.6623 0001773 270.4826  52.9844 15.75033016  3932"}}, "geometry": {"type": "Point", "coordinates": [-23.233504008795805, 24.422260650980768]}}, {"type": "Feature", "properties": {"norad_id": 66498, "name": "STARLINK-35907", "group": "last-30-days", "lat": 23.27464933136629, "lon": -21.56538406927802, "alt_km": 341.48169551788305, "timestamp": "2025-12-02T10:50:46.052558+00:00", "meta": {"OBJECT_NAME": "STARLINK-35907", "OBJECT_ID": "2025-263P", "EPOCH": "2025-12-02T04:00:03.998880", "MEAN_MOTION": 15.75042695, "ECCENTRICITY": 0.0001751, "INCLINATION": 42.9987, "RA_OF_ASC_NODE": 187.6578, "ARG_OF_PERICENTER": 266.6772, "MEAN_ANOMALY": 58.6907, "EPHEMERIS_TYPE": 0, "CLASSIFICATION_TYPE": "U", "NORAD_CAT_ID": 66498, "ELEMENT_SET_NO": 999, "REV_AT_EPOCH": 393, "BSTAR": -2.303e-05, "MEAN_MOTION_DOT": -4.014e-05, "MEAN_MOTION_DDOT": 0}, "tle": {"line1": "1 66498U 25263P   25336.16671295 -.00004014  00000+0 -23030-4 0  9999", "line2": "2 66498  42.9987 187.6578 0001751 266.6772  58.6907 15.75042695  3930"}}, "geometry": {"type": "Point", "coordinates": [-21.56538406927802, 23.27464933136629]}}, {"type": "Feature", "properties": {"norad_id": 66499, "name": "STARLINK-35816", "group": "last-30-days", "lat": 20.871771556290298, "lon": -18.23806925057646, "alt_km": 341.9396734608781, "timestamp": "2025-12-02T10:50:46.052570+00:00", "meta": {"OBJECT_NAME": "STARLINK-35816", "OBJECT_ID": "2025-263Q", "EPOCH": "2025-12-02T04:00:03.998880", "MEAN_MOTION": 15.74988339, "ECCENTRICITY": 0.0001687, "INCLINATION": 42.9988, "RA_OF_ASC_NODE": 187.6477, "ARG_OF_PERICENTER": 264.8863, "MEAN_ANOMALY": 64.4573, "EPHEMERIS_TYPE": 0, "CLASSIFICATION_TYPE": "U", "NORAD_CAT_ID": 66499, "ELEMENT_SET_NO": 999, "REV_AT_EPOCH": 393, "BSTAR": -0.00017186, "MEAN_MOTION_DOT": -0.00026734, "MEAN_MOTION_DDOT": 0}, "tle": {"line1": "1 66499U 25263Q   25336.16671295 -.00026734  00000+0 -17186-3 0  9997", "line2": "2 66499  42.9988 187.6477 0001687 264.8863  64.4573 15.74988339  3936"}}, "geometry": {"type": "Point", "coordinates": [-18.23806925057646, 20.871771556290298]}}, {"type": "Feature", "properties": {"norad_id": 66500, "name": "STARLINK-35894", "group": "last-30-days", "lat": 22.104346657136734, "lon": -19.918801861412337, "alt_km": 341.9392617849908, "timestamp": "2025-12-02T10:50:46.052580+00:00", "meta": {"OBJECT_NAME": "STARLINK-35894", "OBJECT_ID": "2025-263R", "EPOCH": "2025-12-02T04:00:03.998880", "MEAN_MOTION": 15.7505204, "ECCENTRICITY": 0.0002307, "INCLINATION": 42.9988, "RA_OF_ASC_NODE": 187.653, "ARG_OF_PERICENTER": 270.8005, "MEAN_ANOMALY": 56.4884, "EPHEMERIS_TYPE": 0, "CLASSIFICATION_TYPE": "U", "NORAD_CAT_ID": 66500, "ELEMENT_SET_NO": 999, "REV_AT_EPOCH": 393, "BSTAR": -0.00016778, "MEAN_MOTION_DOT": -0.00026188, "MEAN_MOTION_DDOT": 0}, "tle": {"line1": "1 66500U 25263R   25336.16671295 -.00026188  00000+0 -16778-3 0  9999", "line2": "2 66500  42.9988 187.6530 0002307 270.8005  56.4884 15.75052040  3932"}}, "geometry": {"type": "Point", "coordinates": [-19.918801861412337, 22.104346657136734]}}, {"type": "Feature", "properties": {"norad_id": 66501, "name": "STARLINK-35897", "group": "last-30-days", "lat": 19.716353591014272, "lon": -16.7070851872094, "alt_km": 342.00762897885215, "timestamp": "2025-12-02T10:50:46.052590+00:00", "meta": {"OBJECT_NAME": "STARLINK-35897", "OBJECT_ID": "2025-263S", "EPOCH": "2025-12-02T04:00:03.998880", "MEAN_MOTION": 15.75051957, "ECCENTRICITY": 0.0001649, "INCLINATION": 42.9987, "RA_OF_ASC_NODE": 187.6431, "ARG_OF_PERICENTER": 272.9787, "MEAN_ANOMALY": 58.1383, "EPHEMERIS_TYPE": 0, "CLASSIFICATION_TYPE": "U", "NORAD_CAT_ID": 66501, "ELEMENT_SET_NO": 999, "REV_AT_EPOCH": 393, "BSTAR": -6.8492e-05, "MEAN_MOTION_DOT": -0.00010991, "MEAN_MOTION_DDOT": 0}, "tle": {"line1": "1 66501U 25263S   25336.16671295 -.00010991  00000+0 -68492-4 0  9996", "line2": "2 66501  42.9987 187.6431 0001649 272.9787  58.1383 15.75051957  3939"}}, "geometry": {"type": "Point", "coordinates": [-16.7070851872094, 19.716353591014272]}}, {"type": "Feature", "properties": {"norad_id": 66502, "name": "STARLINK-35922", "group": "last-30-days", "lat": 16.039862629606898, "lon": -12.074566167625768, "alt_km": 342.7160382732254, "timestamp": "2025-12-02T10:50:46.052599+00:00", "meta": {"OBJECT_NAME": "STARLINK-35922", "OBJECT_ID": "2025-263T", "EPOCH": "2025-12-02T04:00:03.998880", "MEAN_MOTION": 15.75076751, "ECCENTRICITY": 0.0002251, "INCLINATION": 42.9985, "RA_OF_ASC_NODE": 187.6279, "ARG_OF_PERICENTER": 272.7168, "MEAN_ANOMALY": 64.1467, "EPHEMERIS_TYPE": 0, "CLASSIFICATION_TYPE": "U", "NORAD_CAT_ID": 66502, "ELEMENT_SET_NO": 999, "REV_AT_EPOCH": 393, "BSTAR": -0.00047707, "MEAN_MOTION_DOT": -0.00073255, "MEAN_MOTION_DDOT": 0}, "tle": {"line1": "1 66502U 25263T   25336.16671295 -.00073255  00000+0 -47707-3 0  9994", "line2": "2 66502  42.9985 187.6279 0002251 272.7168  64.1467 15.75076751  3938"}}, "geometry": {"type": "Point", "coordinates": [-12.074566167625768, 16.039862629606898]}}, {"type": "Feature", "properties": {"norad_id": 66503, "name": "STARLINK-35917", "group": "last-30-days", "lat": 13.596809257410218, "lon": -9.159427896432092, "alt_km": 342.6725341181518, "timestamp": "2025-12-02T10:50:46.052635+00:00", "meta": {"OBJECT_NAME": "STARLINK-35917", "OBJECT_ID": "2025-263U", "EPOCH": "2025-12-01T14:00:01.999872", "MEAN_MOTION": 15.75023425, "ECCENTRICITY": 0.00017321, "INCLINATION": 42.9988, "RA_OF_ASC_NODE": 191.1558, "ARG_OF_PERICENTER": 252.8229, "MEAN_ANOMALY": 16.1284, "EPHEMERIS_TYPE": 0, "CLASSIFICATION_TYPE": "U", "NORAD_CAT_ID": 66503, "ELEMENT_SET_NO": 999, "REV_AT_EPOCH": 384, "BSTAR": -0.00011989993, "MEAN_MOTION_DOT": -0.00018842, "MEAN_MOTION_DDOT": 0}, "tle": {"line1": "1 66503U 25263U   25335.58335648 -.00018842  00000+0 -11990-3 0  9995", "line2": "2 66503  42.9988 191.1558 0001732 252.8229  16.1284 15.75023425  3846"}}, "geometry": {"type": "Point", "coordinates": [-9.159427896432092, 13.596809257410218]}}, {"type": "Feature", "properties": {"norad_id": 66504, "name": "STARLINK-35916", "group": "last-30-days", "lat": 12.49357367364089, "lon": -160.0045706890037, "alt_km": 391.43662800428774, "timestamp": "2025-12-02T10:50:46.052648+00:00", "meta": {"OBJECT_NAME": "STARLINK-35916", "OBJECT_ID": "2025-263V", "EPOCH": "2025-12-02T04:00:03.998880", "MEAN_MOTION": 15.59744066, "ECCENTRICITY": 0.0001328, "INCLINATION": 42.9994, "RA_OF_ASC_NODE": 187.9291, "ARG_OF_PERICENTER": 257.5614, "MEAN_ANOMALY": 318.4156, "EPHEMERIS_TYPE": 0, "CLASSIFICATION_TYPE": "U", "NORAD_CAT_ID": 66504, "ELEMENT_SET_NO": 999, "REV_AT_EPOCH": 393, "BSTAR": -0.034774, "MEAN_MOTION_DOT": -0.02489655, "MEAN_MOTION_DDOT": 0}, "tle": {"line1": "1 66504U 25263V   25336.16671295 -.02489655  00000+0 -34774-1 0  9991", "line2": "2 66504  42.9994 187.9291 0001328 257.5614 318.4156 15.59744066  3931"}}, "geometry": {"type": "Point", "coordinates": [-160.0045706890037, 12.49357367364089]}}, {"type": "Feature", "properties": {"norad_id": 66505, "name": "STARLINK-34766", "group": "last-30-days", "lat": 18.50843106998601, "lon": -15.148663934925024, "alt_km": 342.1697026206266, "timestamp": "2025-12-02T10:50:46.052658+00:00", "meta": {"OBJECT_NAME": "STARLINK-34766", "OBJECT_ID": "2025-263W", "EPOCH": "2025-12-02T04:00:03.998880", "MEAN_MOTION": 15.7504247, "ECCENTRICITY": 0.0001845, "INCLINATION": 42.9986, "RA_OF_ASC_NODE": 187.6372, "ARG_OF_PERICENTER": 267.8445, "MEAN_ANOMALY": 65.1926, "EPHEMERIS_TYPE": 0, "CLASSIFICATION_TYPE": "U", "NORAD_CAT_ID": 66505, "ELEMENT_SET_NO": 999, "REV_AT_EPOCH": 393, "BSTAR": -6.4656e-05, "MEAN_MOTION_DOT": -0.00010399, "MEAN_MOTION_DDOT": 0}, "tle": {"line1": "1 66505U 25263W   25336.16671295 -.00010399  00000+0 -64656-4 0  9990", "line2": "2 66505  42.9986 187.6372 0001845 267.8445  65.1926 15.75042470  3939"}}, "geometry": {"type": "Point", "coordinates": [-15.148663934925024, 18.50843106998601]}}]}